IRIDIUM 136             
1 42962U 17061H   24024.07725748  .00000262  00000+0  86403-4 0  9994
2 42962  86.3955  30.9497 0002379  85.6975 274.4493 14.34219401329404
